{
  "type": "FeatureCollection",
  "generator": "overpass-turbo",
  "copyright": "The data included in this document is from www.openstreetmap.org. The data is made available under ODbL.",
  "timestamp": "2026-01-25T02:34:43Z",
  "features": [
    {
      "type": "Feature",
      "properties": {
        "@id": "relation/13001749",
        "admin_level": "6",
        "boundary": "administrative",
        "name": "Dagupan",
        "name:en": "Dagupan",
        "name:ilo": "Dagupan",
        "name:ja": "ダグパン",
        "name:ko": "다구판",
        "name:pag": "Dagupan",
        "name:ru": "Дагупан",
        "name:tl": "Dagupan",
        "old_ref": "015518000",
        "population": "174302",
        "population:date": "2020-05-01",
        "postal_code": "2400",
        "ref": "0105518000",
        "source:population": "Philippine Statistics Authority",
        "type": "boundary",
        "website": "https://www.dagupan.gov.ph/",
        "wikidata": "Q875070",
        "wikipedia": "en:Dagupan"
      },
      "geometry": {
        "type": "Polygon",
        "coordinates": [
          [
            [
              120.3461054,
              16.0211433
            ],
            [
              120.3467053,
              16.0213771
            ],
            [
              120.3469022,
              16.021417
            ],
            [
              120.3489429,
              16.0224786
            ],
            [
              120.3501972,
              16.0230893
            ],
            [
              120.3511986,
              16.0236001
            ],
            [
              120.3511718,
              16.0239275
            ],
            [
              120.3515916,
              16.0240052
            ],
            [
              120.3515672,
              16.0242611
            ],
            [
              120.3514627,
              16.0245845
            ],
            [
              120.3513038,
              16.0249017
            ],
            [
              120.3519679,
              16.0251161
            ],
            [
              120.3523339,
              16.0251859
            ],
            [
              120.3524284,
              16.02521
            ],
            [
              120.3525797,
              16.0252435
            ],
            [
              120.3528058,
              16.0252676
            ],
            [
              120.3531699,
              16.0252894
            ],
            [
              120.3533798,
              16.0252877
            ],
            [
              120.3535462,
              16.0252571
            ],
            [
              120.3536252,
              16.0252268
            ],
            [
              120.3537907,
              16.0260228
            ],
            [
              120.3564112,
              16.0272215
            ],
            [
              120.3583049,
              16.0276701
            ],
            [
              120.3583639,
              16.0275567
            ],
            [
              120.3598364,
              16.0281058
            ],
            [
              120.3597908,
              16.028263
            ],
            [
              120.3605717,
              16.0285931
            ],
            [
              120.3606726,
              16.0290988
            ],
            [
              120.3606881,
              16.0294168
            ],
            [
              120.3606149,
              16.0297868
            ],
            [
              120.3604464,
              16.0301508
            ],
            [
              120.3603227,
              16.0303294
            ],
            [
              120.360052,
              16.0305881
            ],
            [
              120.3597759,
              16.0308194
            ],
            [
              120.3595765,
              16.0310663
            ],
            [
              120.3594922,
              16.0312784
            ],
            [
              120.3594596,
              16.031509
            ],
            [
              120.3595021,
              16.0317151
            ],
            [
              120.3596001,
              16.0318506
            ],
            [
              120.3598981,
              16.0320271
            ],
            [
              120.3600109,
              16.0320794
            ],
            [
              120.3610241,
              16.0324454
            ],
            [
              120.3613701,
              16.0326432
            ],
            [
              120.3616016,
              16.0328717
            ],
            [
              120.3617015,
              16.033067
            ],
            [
              120.3617717,
              16.0332455
            ],
            [
              120.3618507,
              16.0335929
            ],
            [
              120.3618036,
              16.0339447
            ],
            [
              120.3616629,
              16.0341398
            ],
            [
              120.3615054,
              16.0343335
            ],
            [
              120.3613879,
              16.0343903
            ],
            [
              120.3612212,
              16.0344092
            ],
            [
              120.3608971,
              16.034273
            ],
            [
              120.3606839,
              16.0342374
            ],
            [
              120.3604613,
              16.0342702
            ],
            [
              120.3602791,
              16.0343651
            ],
            [
              120.3601975,
              16.0345031
            ],
            [
              120.3602153,
              16.0347328
            ],
            [
              120.3603412,
              16.034951
            ],
            [
              120.3605501,
              16.0350372
            ],
            [
              120.3608829,
              16.0351011
            ],
            [
              120.3613759,
              16.0351908
            ],
            [
              120.3618071,
              16.0352917
            ],
            [
              120.3620647,
              16.0354263
            ],
            [
              120.362469,
              16.0356941
            ],
            [
              120.3627851,
              16.0360804
            ],
            [
              120.363018,
              16.0363258
            ],
            [
              120.3634841,
              16.0364833
            ],
            [
              120.3639661,
              16.0364773
            ],
            [
              120.3643994,
              16.0364109
            ],
            [
              120.3649309,
              16.0363936
            ],
            [
              120.3655874,
              16.0362702
            ],
            [
              120.3666773,
              16.0360685
            ],
            [
              120.3671097,
              16.0360738
            ],
            [
              120.3676919,
              16.0359615
            ],
            [
              120.3681135,
              16.0358472
            ],
            [
              120.3686116,
              16.0355546
            ],
            [
              120.3691339,
              16.0352981
            ],
            [
              120.3697929,
              16.0349836
            ],
            [
              120.3704186,
              16.0345745
            ],
            [
              120.3707362,
              16.034294
            ],
            [
              120.3711138,
              16.0339311
            ],
            [
              120.3713456,
              16.0337248
            ],
            [
              120.3717061,
              16.0335104
            ],
            [
              120.3721781,
              16.0334691
            ],
            [
              120.3723412,
              16.0335104
            ],
            [
              120.3725472,
              16.0337083
            ],
            [
              120.3732939,
              16.0346405
            ],
            [
              120.3738261,
              16.0357789
            ],
            [
              120.3741179,
              16.0365955
            ],
            [
              120.3741522,
              16.0372307
            ],
            [
              120.3739806,
              16.0377669
            ],
            [
              120.3736973,
              16.0384103
            ],
            [
              120.3731308,
              16.0393177
            ],
            [
              120.3735307,
              16.0393056
            ],
            [
              120.3740371,
              16.0390911
            ],
            [
              120.3746723,
              16.0390498
            ],
            [
              120.3748782,
              16.0390498
            ],
            [
              120.3751872,
              16.0390911
            ],
            [
              120.3753846,
              16.0390581
            ],
            [
              120.3755391,
              16.0389509
            ],
            [
              120.3756164,
              16.0385632
            ],
            [
              120.3757881,
              16.038126
            ],
            [
              120.3762687,
              16.0372928
            ],
            [
              120.3766979,
              16.0368639
            ],
            [
              120.3769725,
              16.0364019
            ],
            [
              120.3773588,
              16.0357255
            ],
            [
              120.3775132,
              16.0353543
            ],
            [
              120.3776592,
              16.0353378
            ],
            [
              120.3784311,
              16.0355694
            ],
            [
              120.3786939,
              16.0357807
            ],
            [
              120.3790454,
              16.0358049
            ],
            [
              120.3790239,
              16.0358987
            ],
            [
              120.3791354,
              16.0360719
            ],
            [
              120.3792814,
              16.0363359
            ],
            [
              120.3794616,
              16.0365669
            ],
            [
              120.3797191,
              16.0369628
            ],
            [
              120.3796419,
              16.0372516
            ],
            [
              120.3790067,
              16.037994
            ],
            [
              120.3788436,
              16.0382497
            ],
            [
              120.378835,
              16.0385054
            ],
            [
              120.3791612,
              16.0388271
            ],
            [
              120.3791669,
              16.0391362
            ],
            [
              120.379092,
              16.0393663
            ],
            [
              120.3788526,
              16.0396539
            ],
            [
              120.3787479,
              16.0398769
            ],
            [
              120.3787703,
              16.0399631
            ],
            [
              120.3790771,
              16.0402508
            ],
            [
              120.3791519,
              16.040409
            ],
            [
              120.3790472,
              16.0407973
            ],
            [
              120.3790846,
              16.0410921
            ],
            [
              120.3791968,
              16.0412359
            ],
            [
              120.3793389,
              16.0412215
            ],
            [
              120.3797879,
              16.0409914
            ],
            [
              120.3798926,
              16.0410058
            ],
            [
              120.3799974,
              16.0411856
            ],
            [
              120.3799824,
              16.0417536
            ],
            [
              120.3800423,
              16.042559
            ],
            [
              120.380147,
              16.0427747
            ],
            [
              120.3803191,
              16.0428466
            ],
            [
              120.3807231,
              16.042825
            ],
            [
              120.3808728,
              16.0429185
            ],
            [
              120.3808503,
              16.0431486
            ],
            [
              120.3806707,
              16.0436807
            ],
            [
              120.3804612,
              16.0442344
            ],
            [
              120.3800975,
              16.0444551
            ],
            [
              120.3798926,
              16.0445795
            ],
            [
              120.379541,
              16.0446802
            ],
            [
              120.3793764,
              16.0449678
            ],
            [
              120.3794138,
              16.0451548
            ],
            [
              120.3795634,
              16.0452698
            ],
            [
              120.3796682,
              16.0454855
            ],
            [
              120.3795784,
              16.045881
            ],
            [
              120.3793614,
              16.0461471
            ],
            [
              120.3791036,
              16.0464497
            ],
            [
              120.3787603,
              16.0462847
            ],
            [
              120.3784771,
              16.0462517
            ],
            [
              120.3780994,
              16.0461857
            ],
            [
              120.3779363,
              16.0463589
            ],
            [
              120.3776721,
              16.0465163
            ],
            [
              120.376863,
              16.0465923
            ],
            [
              120.3766489,
              16.0466889
            ],
            [
              120.3760132,
              16.0470483
            ],
            [
              120.3753261,
              16.0476103
            ],
            [
              120.3750828,
              16.0477181
            ],
            [
              120.3748487,
              16.0477636
            ],
            [
              120.3746282,
              16.0477341
            ],
            [
              120.3741467,
              16.047501
            ],
            [
              120.373952,
              16.0474702
            ],
            [
              120.3737049,
              16.047555
            ],
            [
              120.3734216,
              16.0478767
            ],
            [
              120.3732843,
              16.0480994
            ],
            [
              120.373147,
              16.0482561
            ],
            [
              120.3728036,
              16.0484211
            ],
            [
              120.3725118,
              16.0485036
            ],
            [
              120.3720655,
              16.0484788
            ],
            [
              120.3717325,
              16.0483988
            ],
            [
              120.3713531,
              16.0482231
            ],
            [
              120.371027,
              16.0481406
            ],
            [
              120.3708124,
              16.0481654
            ],
            [
              120.3705892,
              16.0483881
            ],
            [
              120.3704176,
              16.0486355
            ],
            [
              120.3701483,
              16.0487954
            ],
            [
              120.369894,
              16.0489655
            ],
            [
              120.3697395,
              16.0491222
            ],
            [
              120.3697052,
              16.0493037
            ],
            [
              120.3697395,
              16.0495759
            ],
            [
              120.3699798,
              16.0498233
            ],
            [
              120.3699712,
              16.0500213
            ],
            [
              120.3698425,
              16.0501285
            ],
            [
              120.3695678,
              16.0502357
            ],
            [
              120.3693704,
              16.0504337
            ],
            [
              120.3692588,
              16.0507307
            ],
            [
              120.3692417,
              16.0510111
            ],
            [
              120.3692932,
              16.0512751
            ],
            [
              120.3694563,
              16.051539
            ],
            [
              120.3696193,
              16.051704
            ],
            [
              120.3699026,
              16.0518112
            ],
            [
              120.370203,
              16.0518854
            ],
            [
              120.370718,
              16.0520009
            ],
            [
              120.3707234,
              16.0521211
            ],
            [
              120.3707265,
              16.0521906
            ],
            [
              120.3705978,
              16.0523474
            ],
            [
              120.3700399,
              16.0526031
            ],
            [
              120.369276,
              16.0530283
            ],
            [
              120.3690052,
              16.0532732
            ],
            [
              120.3687954,
              16.0536753
            ],
            [
              120.3686065,
              16.053997
            ],
            [
              120.3683441,
              16.0543167
            ],
            [
              120.3679971,
              16.0547394
            ],
            [
              120.3674478,
              16.0553168
            ],
            [
              120.3664608,
              16.0563313
            ],
            [
              120.3661604,
              16.0566777
            ],
            [
              120.3661306,
              16.0568615
            ],
            [
              120.3661003,
              16.0570489
            ],
            [
              120.3661775,
              16.0573458
            ],
            [
              120.3662376,
              16.0575933
            ],
            [
              120.3662376,
              16.0578572
            ],
            [
              120.3661089,
              16.0585253
            ],
            [
              120.3659114,
              16.0589542
            ],
            [
              120.3657999,
              16.0594079
            ],
            [
              120.3658084,
              16.0597213
            ],
            [
              120.3659458,
              16.0600265
            ],
            [
              120.3661604,
              16.0602904
            ],
            [
              120.3662634,
              16.0606616
            ],
            [
              120.3663406,
              16.061041
            ],
            [
              120.3661346,
              16.0613462
            ],
            [
              120.3658514,
              16.0615111
            ],
            [
              120.3652935,
              16.0617916
            ],
            [
              120.3650077,
              16.0621155
            ],
            [
              120.3649587,
              16.062171
            ],
            [
              120.3646669,
              16.0623937
            ],
            [
              120.3641348,
              16.0625834
            ],
            [
              120.3636283,
              16.0626988
            ],
            [
              120.3633451,
              16.0627813
            ],
            [
              120.3629417,
              16.0630288
            ],
            [
              120.3623495,
              16.0635236
            ],
            [
              120.3620233,
              16.0638041
            ],
            [
              120.3617229,
              16.0640433
            ],
            [
              120.361577,
              16.0642742
            ],
            [
              120.3616199,
              16.0645464
            ],
            [
              120.3619203,
              16.0649175
            ],
            [
              120.3622207,
              16.0652887
            ],
            [
              120.3624096,
              16.0656763
            ],
            [
              120.3624782,
              16.0661877
            ],
            [
              120.3624696,
              16.0665094
            ],
            [
              120.3622207,
              16.0667486
            ],
            [
              120.3619718,
              16.0668723
            ],
            [
              120.3617229,
              16.066864
            ],
            [
              120.361577,
              16.0667651
            ],
            [
              120.3614139,
              16.0666001
            ],
            [
              120.3612594,
              16.0662207
            ],
            [
              120.3610878,
              16.065833
            ],
            [
              120.3609247,
              16.0656846
            ],
            [
              120.3607788,
              16.0655609
            ],
            [
              120.3605728,
              16.0655444
            ],
            [
              120.3603239,
              16.0656681
            ],
            [
              120.3599033,
              16.0661382
            ],
            [
              120.3592767,
              16.0668805
            ],
            [
              120.3588647,
              16.0672104
            ],
            [
              120.3585901,
              16.0674001
            ],
            [
              120.3582983,
              16.0675074
            ],
            [
              120.3579807,
              16.0675651
            ],
            [
              120.3576622,
              16.0675534
            ],
            [
              120.3582296,
              16.06806
            ],
            [
              120.3587446,
              16.0684311
            ],
            [
              120.3593025,
              16.0686703
            ],
            [
              120.3606758,
              16.068926
            ],
            [
              120.3616027,
              16.0690909
            ],
            [
              120.362092,
              16.0692229
            ],
            [
              120.362607,
              16.0693054
            ],
            [
              120.3629074,
              16.0694208
            ],
            [
              120.3631734,
              16.0696683
            ],
            [
              120.3634052,
              16.0698827
            ],
            [
              120.3636369,
              16.0700724
            ],
            [
              120.3638086,
              16.0704188
            ],
            [
              120.3639974,
              16.0709961
            ],
            [
              120.3642377,
              16.0715487
            ],
            [
              120.3644695,
              16.0719529
            ],
            [
              120.3648471,
              16.0725054
            ],
            [
              120.3651905,
              16.0729921
            ],
            [
              120.3654308,
              16.0732147
            ],
            [
              120.3656797,
              16.0733467
            ],
            [
              120.3659715,
              16.0734952
            ],
            [
              120.366332,
              16.0735859
            ],
            [
              120.3669157,
              16.0735941
            ],
            [
              120.3674049,
              16.0736024
            ],
            [
              120.3677826,
              16.0737261
            ],
            [
              120.3680486,
              16.073891
            ],
            [
              120.3682632,
              16.0741797
            ],
            [
              120.3684177,
              16.0744601
            ],
            [
              120.3685464,
              16.0746993
            ],
            [
              120.3690099,
              16.0752684
            ],
            [
              120.3694734,
              16.0759199
            ],
            [
              120.3698854,
              16.0768271
            ],
            [
              120.3702974,
              16.0774952
            ],
            [
              120.3708038,
              16.0778581
            ],
            [
              120.3712244,
              16.0780807
            ],
            [
              120.3717565,
              16.0783281
            ],
            [
              120.3722458,
              16.0786003
            ],
            [
              120.3726234,
              16.0789714
            ],
            [
              120.3726749,
              16.0792436
            ],
            [
              120.3726663,
              16.0797302
            ],
            [
              120.3726148,
              16.0800436
            ],
            [
              120.3720226,
              16.0814786
            ],
            [
              120.3716106,
              16.0822538
            ],
            [
              120.3713703,
              16.0825095
            ],
            [
              120.3711557,
              16.0826497
            ],
            [
              120.370778,
              16.0828641
            ],
            [
              120.3702373,
              16.0828971
            ],
            [
              120.3697567,
              16.0829549
            ],
            [
              120.3695078,
              16.0830126
            ],
            [
              120.3689327,
              16.0832682
            ],
            [
              120.3686666,
              16.0835239
            ],
            [
              120.3684864,
              16.0837301
            ],
            [
              120.368392,
              16.0839692
            ],
            [
              120.368349,
              16.0841919
            ],
            [
              120.368349,
              16.0844806
            ],
            [
              120.3683405,
              16.0852063
            ],
            [
              120.3683147,
              16.085495
            ],
            [
              120.3682031,
              16.0857506
            ],
            [
              120.3679971,
              16.0859815
            ],
            [
              120.3676796,
              16.0863197
            ],
            [
              120.3673191,
              16.0865176
            ],
            [
              120.3668899,
              16.0867073
            ],
            [
              120.3665123,
              16.0868805
            ],
            [
              120.3661861,
              16.0869794
            ],
            [
              120.3658428,
              16.0871114
            ],
            [
              120.3655424,
              16.0873918
            ],
            [
              120.3653621,
              16.0876722
            ],
            [
              120.3651561,
              16.0880845
            ],
            [
              120.3651046,
              16.0885381
            ],
            [
              120.3650875,
              16.0888927
            ],
            [
              120.3650016,
              16.0891649
            ],
            [
              120.3650102,
              16.089404
            ],
            [
              120.3651733,
              16.0896844
            ],
            [
              120.3652935,
              16.0898823
            ],
            [
              120.3654651,
              16.0900885
            ],
            [
              120.3658943,
              16.0903936
            ],
            [
              120.3663406,
              16.090608
            ],
            [
              120.3665037,
              16.0906823
            ],
            [
              120.3668727,
              16.0907812
            ],
            [
              120.3671903,
              16.0908555
            ],
            [
              120.3674221,
              16.0909132
            ],
            [
              120.3679027,
              16.0909627
            ],
            [
              120.3682117,
              16.0909297
            ],
            [
              120.3684692,
              16.0907895
            ],
            [
              120.3688039,
              16.0905751
            ],
            [
              120.3692417,
              16.0902452
            ],
            [
              120.3698082,
              16.0897504
            ],
            [
              120.370203,
              16.0893628
            ],
            [
              120.3705978,
              16.0890164
            ],
            [
              120.3710184,
              16.088736
            ],
            [
              120.3712158,
              16.0886288
            ],
            [
              120.371499,
              16.0885628
            ],
            [
              120.3718252,
              16.0885133
            ],
            [
              120.3720344,
              16.0884931
            ],
            [
              120.3723478,
              16.088588
            ],
            [
              120.3727083,
              16.0887889
            ],
            [
              120.3730697,
              16.0891566
            ],
            [
              120.3733959,
              16.0895937
            ],
            [
              120.373765,
              16.0898823
            ],
            [
              120.3753957,
              16.0908225
            ],
            [
              120.3766403,
              16.0914905
            ],
            [
              120.3779707,
              16.0922739
            ],
            [
              120.3787689,
              16.0929419
            ],
            [
              120.3793354,
              16.0934532
            ],
            [
              120.3798675,
              16.0940799
            ],
            [
              120.3802538,
              16.0946077
            ],
            [
              120.3803911,
              16.0949953
            ],
            [
              120.3804941,
              16.0955891
            ],
            [
              120.3807172,
              16.0961004
            ],
            [
              120.3807602,
              16.0965292
            ],
            [
              120.3808117,
              16.0970899
            ],
            [
              120.3807773,
              16.0974775
            ],
            [
              120.3808031,
              16.0977332
            ],
            [
              120.3809061,
              16.0979641
            ],
            [
              120.3810606,
              16.098195
            ],
            [
              120.3811292,
              16.0983764
            ],
            [
              120.381258,
              16.0985743
            ],
            [
              120.3814725,
              16.0987557
            ],
            [
              120.3818416,
              16.0989619
            ],
            [
              120.3822965,
              16.099267
            ],
            [
              120.3828888,
              16.0995969
            ],
            [
              120.3833522,
              16.0998773
            ],
            [
              120.3840217,
              16.1004875
            ],
            [
              120.3843736,
              16.1008668
            ],
            [
              120.3849659,
              16.1014441
            ],
            [
              120.3852577,
              16.1016585
            ],
            [
              120.3857727,
              16.1021945
            ],
            [
              120.3860988,
              16.1027882
            ],
            [
              120.3862104,
              16.1032418
            ],
            [
              120.3862619,
              16.1036046
            ],
            [
              120.3862533,
              16.1038685
            ],
            [
              120.3861246,
              16.1042973
            ],
            [
              120.3858757,
              16.1048498
            ],
            [
              120.3854551,
              16.1052456
            ],
            [
              120.3851633,
              16.1055095
            ],
            [
              120.3846569,
              16.105592
            ],
            [
              120.3841333,
              16.1056744
            ],
            [
              120.3836784,
              16.1057899
            ],
            [
              120.3830862,
              16.1060785
            ],
            [
              120.3828201,
              16.1062764
            ],
            [
              120.3823137,
              16.1067794
            ],
            [
              120.3819532,
              16.1070598
            ],
            [
              120.3819103,
              16.1072989
            ],
            [
              120.3819103,
              16.1075381
            ],
            [
              120.3821249,
              16.1076947
            ],
            [
              120.3824167,
              16.1081318
            ],
            [
              120.3830518,
              16.108709
            ],
            [
              120.3834381,
              16.1091873
            ],
            [
              120.3837213,
              16.1096078
            ],
            [
              120.3839531,
              16.1098552
            ],
            [
              120.3840651,
              16.1100082
            ],
            [
              120.384401,
              16.1110526
            ],
            [
              120.3824061,
              16.1114633
            ],
            [
              120.3786521,
              16.1124977
            ],
            [
              120.3738606,
              16.1118159
            ],
            [
              120.3476115,
              16.185009
            ],
            [
              120.3200774,
              16.1778051
            ],
            [
              120.3049534,
              16.176663
            ],
            [
              120.2769314,
              16.1783323
            ],
            [
              120.2497022,
              16.1833105
            ],
            [
              120.2990749,
              16.0563221
            ],
            [
              120.3170604,
              16.0100424
            ],
            [
              120.3195941,
              16.0113619
            ],
            [
              120.3195291,
              16.0115366
            ],
            [
              120.3214368,
              16.0125749
            ],
            [
              120.3225155,
              16.0131376
            ],
            [
              120.3228957,
              16.0133546
            ],
            [
              120.323487,
              16.0137662
            ],
            [
              120.3238955,
              16.0140057
            ],
            [
              120.324022,
              16.0140835
            ],
            [
              120.3252801,
              16.0148809
            ],
            [
              120.3254711,
              16.015009
            ],
            [
              120.3255489,
              16.0150595
            ],
            [
              120.325801,
              16.0152229
            ],
            [
              120.3262019,
              16.0155095
            ],
            [
              120.3265393,
              16.0157461
            ],
            [
              120.3274291,
              16.0163118
            ],
            [
              120.3276492,
              16.0164424
            ],
            [
              120.3285246,
              16.0169889
            ],
            [
              120.3289503,
              16.0172649
            ],
            [
              120.3302358,
              16.0181794
            ],
            [
              120.3310763,
              16.0187277
            ],
            [
              120.3314284,
              16.0180982
            ],
            [
              120.3315651,
              16.0178538
            ],
            [
              120.3317698,
              16.0175965
            ],
            [
              120.3319805,
              16.0174287
            ],
            [
              120.331994,
              16.0174213
            ],
            [
              120.3321409,
              16.0173414
            ],
            [
              120.3322713,
              16.0172705
            ],
            [
              120.3324616,
              16.0172232
            ],
            [
              120.3326759,
              16.0171956
            ],
            [
              120.3328423,
              16.0171908
            ],
            [
              120.3328755,
              16.0171899
            ],
            [
              120.3334166,
              16.0171658
            ],
            [
              120.3335095,
              16.0171676
            ],
            [
              120.3336582,
              16.0171706
            ],
            [
              120.3340699,
              16.0171719
            ],
            [
              120.3354269,
              16.0171635
            ],
            [
              120.3356947,
              16.017177
            ],
            [
              120.33608,
              16.0172775
            ],
            [
              120.3364625,
              16.0174192
            ],
            [
              120.3368726,
              16.0175947
            ],
            [
              120.3370015,
              16.0176451
            ],
            [
              120.3370565,
              16.0176666
            ],
            [
              120.3379752,
              16.0180745
            ],
            [
              120.3380077,
              16.0180883
            ],
            [
              120.3386124,
              16.0183621
            ],
            [
              120.338904,
              16.0184756
            ],
            [
              120.3391183,
              16.0185543
            ],
            [
              120.3396331,
              16.0187333
            ],
            [
              120.3397202,
              16.0187642
            ],
            [
              120.3398083,
              16.0187947
            ],
            [
              120.3399203,
              16.0188334
            ],
            [
              120.3402566,
              16.0189261
            ],
            [
              120.340818,
              16.0190812
            ],
            [
              120.3410836,
              16.0191584
            ],
            [
              120.3412069,
              16.019197
            ],
            [
              120.341888,
              16.0194195
            ],
            [
              120.3425087,
              16.019638
            ],
            [
              120.3426858,
              16.0197003
            ],
            [
              120.3428383,
              16.0197577
            ],
            [
              120.3432964,
              16.0199599
            ],
            [
              120.3433474,
              16.0199824
            ],
            [
              120.3434081,
              16.0200084
            ],
            [
              120.3451304,
              16.020747
            ],
            [
              120.3458248,
              16.0209808
            ],
            [
              120.3461054,
              16.0211433
            ]
          ]
        ]
      },
      "id": "relation/13001749"
    },
    {
      "type": "Feature",
      "properties": {
        "@id": "node/317405147",
        "@relations": [
          {
            "role": "label",
            "rel": 13001749,
            "reltags": {
              "admin_level": "6",
              "boundary": "administrative",
              "name": "Dagupan",
              "name:en": "Dagupan",
              "name:ilo": "Dagupan",
              "name:ja": "ダグパン",
              "name:ko": "다구판",
              "name:pag": "Dagupan",
              "name:ru": "Дагупан",
              "name:tl": "Dagupan",
              "old_ref": "015518000",
              "population": "174302",
              "population:date": "2020-05-01",
              "postal_code": "2400",
              "ref": "0105518000",
              "source:population": "Philippine Statistics Authority",
              "type": "boundary",
              "website": "https://www.dagupan.gov.ph/",
              "wikidata": "Q875070",
              "wikipedia": "en:Dagupan"
            }
          }
        ]
      },
      "geometry": {
        "type": "Point",
        "coordinates": [
          120.3337627,
          16.043021
        ]
      },
      "id": "node/317405147"
    }
  ]
}