{
"type": "FeatureCollection",
"name": "dagupan_barangays",
"crs": { "type": "name", "properties": { "name": "urn:ogc:def:crs:OGC:1.3:CRS84" } },
"features": [
{ "type": "Feature", "properties": { "GID_3": "PHL.61.18.1_1", "GID_0": "PHL", "COUNTRY": "Philippines", "GID_1": "PHL.61_1", "NAME_1": "Pangasinan", "NL_NAME_1": "NA", "GID_2": "PHL.61.18_1", "NAME_2": "Dagupan City", "NL_NAME_2": "NA", "NAME_3": "Bacayao Norte", "VARNAME_3": "NA", "NL_NAME_3": "NA", "TYPE_3": "Barangay", "ENGTYPE_3": "Village", "CC_3": "NA", "HASC_3": "NA" }, "geometry": { "type": "MultiPolygon", "coordinates": [ [ [ [ 120.349548341000059, 16.02939987100018 ], [ 120.34795379600007, 16.028499604000046 ], [ 120.346588135000161, 16.030569076 ], [ 120.344757081000012, 16.032279969000115 ], [ 120.34391021700003, 16.032590866000135 ], [ 120.343170167000153, 16.033769608000171 ], [ 120.341827392000141, 16.034479142000066 ], [ 120.339843751000217, 16.035800934000179 ], [ 120.339706422000177, 16.036130904000117 ], [ 120.339660645000208, 16.036550522000027 ], [ 120.339736938000215, 16.037939071999972 ], [ 120.346282960000053, 16.036590576000151 ], [ 120.347343445000092, 16.036100388000079 ], [ 120.349548341000059, 16.02939987100018 ] ] ] ] } },
{ "type": "Feature", "properties": { "GID_3": "PHL.61.18.2_1", "GID_0": "PHL", "COUNTRY": "Philippines", "GID_1": "PHL.61_1", "NAME_1": "Pangasinan", "NL_NAME_1": "NA", "GID_2": "PHL.61.18_1", "NAME_2": "Dagupan City", "NL_NAME_2": "NA", "NAME_3": "Bacayao Sur", "VARNAME_3": "NA", "NL_NAME_3": "NA", "TYPE_3": "Barangay", "ENGTYPE_3": "Village", "CC_3": "NA", "HASC_3": "NA" }, "geometry": { "type": "MultiPolygon", "coordinates": [ [ [ [ 120.351669312000013, 16.023700713999972 ], [ 120.345993042000032, 16.021629334000181 ], [ 120.344276429000161, 16.022899627000072 ], [ 120.341583252000191, 16.024549484000033 ], [ 120.339668273000143, 16.027669908000121 ], [ 120.34066772500023, 16.029760361000172 ], [ 120.340736390000075, 16.02996063300003 ], [ 120.342193604000045, 16.029850007000107 ], [ 120.342941284000062, 16.029479980000133 ], [ 120.343971252000074, 16.028079987000012 ], [ 120.346107482000093, 16.025449754000078 ], [ 120.347557067000025, 16.025220871000101 ], [ 120.348213196000074, 16.02520942700005 ], [ 120.348548889000199, 16.027019500000108 ], [ 120.34795379600007, 16.028499604000046 ], [ 120.349548341000059, 16.02939987100018 ], [ 120.351669312000013, 16.023700713999972 ] ] ] ] } },
{ "type": "Feature", "properties": { "GID_3": "PHL.61.18.3_1", "GID_0": "PHL", "COUNTRY": "Philippines", "GID_1": "PHL.61_1", "NAME_1": "Pangasinan", "NL_NAME_1": "NA", "GID_2": "PHL.61.18_1", "NAME_2": "Dagupan City", "NL_NAME_2": "NA", "NAME_3": "Barangay I", "VARNAME_3": "T. Bugallon", "NL_NAME_3": "NA", "TYPE_3": "Barangay", "ENGTYPE_3": "Village", "CC_3": "NA", "HASC_3": "NA" }, "geometry": { "type": "MultiPolygon", "coordinates": [ [ [ [ 120.340187072000163, 16.04657936100017 ], [ 120.338867188000336, 16.045860290000121 ], [ 120.337097167000024, 16.045780182000044 ], [ 120.334022523000158, 16.045400619000191 ], [ 120.331916809000177, 16.044879914000148 ], [ 120.331146241000056, 16.046089173000098 ], [ 120.332580566000161, 16.046070100000065 ], [ 120.333641053000065, 16.046159744000022 ], [ 120.336021424000023, 16.046600342000033 ], [ 120.338462829000036, 16.047729493000134 ], [ 120.339767455000128, 16.047779083000137 ], [ 120.340316773000154, 16.0472698210001 ], [ 120.340187072000163, 16.04657936100017 ] ] ] ] } },
{ "type": "Feature", "properties": { "GID_3": "PHL.61.18.4_1", "GID_0": "PHL", "COUNTRY": "Philippines", "GID_1": "PHL.61_1", "NAME_1": "Pangasinan", "NL_NAME_1": "NA", "GID_2": "PHL.61.18_1", "NAME_2": "Dagupan City", "NL_NAME_2": "NA", "NAME_3": "Barangay II", "VARNAME_3": "Nueva", "NL_NAME_3": "NA", "TYPE_3": "Barangay", "ENGTYPE_3": "Village", "CC_3": "NA", "HASC_3": "NA" }, "geometry": { "type": "MultiPolygon", "coordinates": [ [ [ [ 120.334022523000158, 16.045400619000191 ], [ 120.337097167000024, 16.045780182000044 ], [ 120.338867188000336, 16.045860290000121 ], [ 120.340187072000163, 16.04657936100017 ], [ 120.340850831000239, 16.043130875000145 ], [ 120.335586549000027, 16.040199280000138 ], [ 120.334106445000202, 16.043840408000108 ], [ 120.334548950000112, 16.043960571000014 ], [ 120.333961488000114, 16.045249939000144 ], [ 120.334022523000158, 16.045400619000191 ] ] ] ] } },
{ "type": "Feature", "properties": { "GID_3": "PHL.61.18.5_1", "GID_0": "PHL", "COUNTRY": "Philippines", "GID_1": "PHL.61_1", "NAME_1": "Pangasinan", "NL_NAME_1": "NA", "GID_2": "PHL.61.18_1", "NAME_2": "Dagupan City", "NL_NAME_2": "NA", "NAME_3": "Barangay IV", "VARNAME_3": "Zamora", "NL_NAME_3": "NA", "TYPE_3": "Barangay", "ENGTYPE_3": "Village", "CC_3": "NA", "HASC_3": "NA" }, "geometry": { "type": "MultiPolygon", "coordinates": [ [ [ [ 120.331916809000177, 16.044879914000148 ], [ 120.334022523000158, 16.045400619000191 ], [ 120.333961488000114, 16.045249939000144 ], [ 120.334548950000112, 16.043960571000014 ], [ 120.334106445000202, 16.043840408000108 ], [ 120.335586549000027, 16.040199280000138 ], [ 120.333770751000088, 16.039079667000124 ], [ 120.332427978000283, 16.041469574000075 ], [ 120.333328248000157, 16.041709901000161 ], [ 120.333412170000202, 16.042379380000057 ], [ 120.332862854000041, 16.043560028 ], [ 120.331916809000177, 16.044879914000148 ] ] ] ] } },
{ "type": "Feature", "properties": { "GID_3": "PHL.61.18.6_1", "GID_0": "PHL", "COUNTRY": "Philippines", "GID_1": "PHL.61_1", "NAME_1": "Pangasinan", "NL_NAME_1": "NA", "GID_2": "PHL.61.18_1", "NAME_2": "Dagupan City", "NL_NAME_2": "NA", "NAME_3": "Bolosan", "VARNAME_3": "NA", "NL_NAME_3": "NA", "TYPE_3": "Barangay", "ENGTYPE_3": "Village", "CC_3": "NA", "HASC_3": "NA" }, "geometry": { "type": "MultiPolygon", "coordinates": [ [ [ [ 120.358421326000212, 16.051929474000076 ], [ 120.358673096000075, 16.051820755000051 ], [ 120.36003112700007, 16.053060532000075 ], [ 120.362396240000066, 16.0546207430001 ], [ 120.365066528000057, 16.05657005400019 ], [ 120.365829468000129, 16.057390213000076 ], [ 120.369583130000024, 16.058679581000035 ], [ 120.370742799000141, 16.057149887000094 ], [ 120.371002198000042, 16.056079864000139 ], [ 120.371131897000168, 16.05439948999998 ], [ 120.371513367000148, 16.053140641000027 ], [ 120.371856689000083, 16.052520752000135 ], [ 120.372047425000233, 16.052379608000024 ], [ 120.371810914000093, 16.051410675000056 ], [ 120.369323730000019, 16.046369554000137 ], [ 120.367118836000031, 16.047740936000082 ], [ 120.363441467000143, 16.047540664000053 ], [ 120.362129210000035, 16.046819687000152 ], [ 120.360733032000098, 16.045410157000049 ], [ 120.360092162000228, 16.043870927000057 ], [ 120.359046936000027, 16.042860032000021 ], [ 120.358642579000048, 16.042839051000158 ], [ 120.358100891000049, 16.04656028800008 ], [ 120.358123780000028, 16.048740387000123 ], [ 120.358169555000018, 16.050569534000033 ], [ 120.358421326000212, 16.051929474000076 ] ] ] ] } },
{ "type": "Feature", "properties": { "GID_3": "PHL.61.18.7_1", "GID_0": "PHL", "COUNTRY": "Philippines", "GID_1": "PHL.61_1", "NAME_1": "Pangasinan", "NL_NAME_1": "NA", "GID_2": "PHL.61.18_1", "NAME_2": "Dagupan City", "NL_NAME_2": "NA", "NAME_3": "Bonuan Binloc", "VARNAME_3": "NA", "NL_NAME_3": "NA", "TYPE_3": "Barangay", "ENGTYPE_3": "Village", "CC_3": "NA", "HASC_3": "NA" }, "geometry": { "type": "MultiPolygon", "coordinates": [ [ [ [ 120.385384000000158, 16.109979999000018 ], [ 120.384148000000209, 16.10828000000015 ], [ 120.383796999000197, 16.10652 ], [ 120.384300000000167, 16.105119999000067 ], [ 120.385979001000123, 16.10405900000012 ], [ 120.386581001000195, 16.103649001000065 ], [ 120.387047, 16.103109001000121 ], [ 120.387870866000071, 16.102619084000025 ], [ 120.387337000000116, 16.10116 ], [ 120.386334744000123, 16.100015139000107 ], [ 120.386093001000063, 16.099739000000113 ], [ 120.384689000000208, 16.098301000000106 ], [ 120.383598, 16.09721 ], [ 120.383309353000186, 16.096931275000031 ], [ 120.383278, 16.096901000000116 ], [ 120.382873967000023, 16.096148906000053 ], [ 120.382431000000111, 16.094899999 ], [ 120.381783001000031, 16.092661000000135 ], [ 120.380027999000276, 16.090231001000063 ], [ 120.379219001000138, 16.089648999000019 ], [ 120.376739999000051, 16.087730001000068 ], [ 120.375474545000088, 16.086661218000188 ], [ 120.374977, 16.086240999000154 ], [ 120.374011676000123, 16.08636144899998 ], [ 120.373863000000256, 16.08638000000019 ], [ 120.372253001000217, 16.087139 ], [ 120.37135300100033, 16.08776100100016 ], [ 120.371332876000224, 16.087773069000093 ], [ 120.370620728000063, 16.088199616000111 ], [ 120.369822670000076, 16.088057588000083 ], [ 120.369270001000132, 16.087958999000023 ], [ 120.368517686000132, 16.087483759000122 ], [ 120.368431000000101, 16.087429001000032 ], [ 120.367683204000173, 16.086380291000125 ], [ 120.366241239000146, 16.08834086700017 ], [ 120.365966126000217, 16.088474769000072 ], [ 120.364517212000237, 16.08917999300013 ], [ 120.362411499000018, 16.091180801000121 ], [ 120.362106324000024, 16.093059539000137 ], [ 120.362396240000066, 16.093980790000103 ], [ 120.362960785000155, 16.094600716000059 ], [ 120.362792969000111, 16.09480094900016 ], [ 120.36319, 16.095150001000093 ], [ 120.363747001000206, 16.095830999000157 ], [ 120.367629999000087, 16.099529000000132 ], [ 120.368332001000113, 16.10008 ], [ 120.368895999000074, 16.100629999000034 ], [ 120.369377000000213, 16.10110999900013 ], [ 120.370003000000111, 16.10173 ], [ 120.370354001000123, 16.102078999000184 ], [ 120.371391, 16.103609 ], [ 120.371947999000213, 16.104441000000122 ], [ 120.37236, 16.10535 ], [ 120.372643001000142, 16.106251000000157 ], [ 120.372711000000209, 16.106951000000151 ], [ 120.372917001000019, 16.108289999000021 ], [ 120.372864, 16.10944000100011 ], [ 120.373611001000086, 16.110278999000059 ], [ 120.374733000000106, 16.111389 ], [ 120.374733000000106, 16.11167000100005 ], [ 120.375000001000103, 16.111939999000185 ], [ 120.375557, 16.111939999000185 ], [ 120.376105999000174, 16.112499000000184 ], [ 120.376389001000121, 16.112499000000184 ], [ 120.376663000000121, 16.112779999000054 ], [ 120.377502001000039, 16.112779999000054 ], [ 120.377777000000151, 16.112499000000184 ], [ 120.378326, 16.112499000000184 ], [ 120.37889100100017, 16.111939999000185 ], [ 120.379722999000137, 16.111939999000185 ], [ 120.380348, 16.11166 ], [ 120.380547001000082, 16.111389 ], [ 120.380836, 16.111111000000108 ], [ 120.381110999000043, 16.111111000000108 ], [ 120.381393001000106, 16.110830001000181 ], [ 120.381943000000206, 16.110830001000181 ], [ 120.382217, 16.111111000000108 ], [ 120.382499999000174, 16.110830001000181 ], [ 120.383331000000112, 16.110830001000181 ], [ 120.383613999000204, 16.111111000000108 ], [ 120.383887999000081, 16.111111000000108 ], [ 120.384163001000275, 16.110830001000181 ], [ 120.384453, 16.110830001000181 ], [ 120.384720000000129, 16.111111000000108 ], [ 120.38500199900011, 16.110830001000181 ], [ 120.385276999000098, 16.110830001000181 ], [ 120.385559, 16.110559001000127 ], [ 120.385756999000023, 16.110559001000127 ], [ 120.385384000000158, 16.109979999000018 ] ] ], [ [ [ 120.386719, 16.111990000000162 ], [ 120.386459, 16.111601000000121 ], [ 120.386108, 16.111940000000118 ], [ 120.385834, 16.111940000000118 ], [ 120.385559, 16.112221 ], [ 120.384453, 16.112221 ], [ 120.384163, 16.112499000000184 ], [ 120.383331000000112, 16.112499000000184 ], [ 120.383057, 16.112780000000157 ], [ 120.382767000000172, 16.112780000000157 ], [ 120.3825, 16.11306 ], [ 120.381943000000206, 16.11306 ], [ 120.381943000000206, 16.113331 ], [ 120.381668000000218, 16.113331 ], [ 120.381393000000116, 16.113609000000167 ], [ 120.380836, 16.113609000000167 ], [ 120.38054700000032, 16.11389 ], [ 120.379997000000117, 16.11389 ], [ 120.379723, 16.11417 ], [ 120.379173000000151, 16.11417 ], [ 120.378891, 16.114441000000113 ], [ 120.37860900000021, 16.114441000000113 ], [ 120.378326, 16.114719 ], [ 120.378052000000139, 16.114719 ], [ 120.377777000000151, 16.11500000000018 ], [ 120.377502, 16.115549000000101 ], [ 120.378532, 16.116541 ], [ 120.379173000000151, 16.116949000000147 ], [ 120.379997000000117, 16.1175 ], [ 120.381393000000116, 16.118330000000185 ], [ 120.382217, 16.118891 ], [ 120.382957, 16.119261000000108 ], [ 120.383043032000046, 16.119235365 ], [ 120.383093978000034, 16.119220185000188 ], [ 120.383399413, 16.119129175000126 ], [ 120.383217, 16.117550001000041 ], [ 120.383927441000196, 16.116912040999978 ], [ 120.384354, 16.116529001000117 ], [ 120.385567, 16.115459000000101 ], [ 120.386787, 16.114269 ], [ 120.387242, 16.113561000000118 ], [ 120.387305985000125, 16.113460962000033 ], [ 120.386719, 16.111990000000162 ] ] ] ] } },
{ "type": "Feature", "properties": { "GID_3": "PHL.61.18.8_1", "GID_0": "PHL", "COUNTRY": "Philippines", "GID_1": "PHL.61_1", "NAME_1": "Pangasinan", "NL_NAME_1": "NA", "GID_2": "PHL.61.18_1", "NAME_2": "Dagupan City", "NL_NAME_2": "NA", "NAME_3": "Bonuan Boquig", "VARNAME_3": "NA", "NL_NAME_3": "NA", "TYPE_3": "Barangay", "ENGTYPE_3": "Village", "CC_3": "NA", "HASC_3": "NA" }, "geometry": { "type": "MultiPolygon", "coordinates": [ [ [ [ 120.362792969000111, 16.09480094900016 ], [ 120.362960785000155, 16.094600716000059 ], [ 120.362396240000066, 16.093980790000103 ], [ 120.362106324000024, 16.093059539000137 ], [ 120.362411499000018, 16.091180801000121 ], [ 120.364517212000237, 16.08917999300013 ], [ 120.365966126000217, 16.088474769000072 ], [ 120.366241239000146, 16.08834086700017 ], [ 120.367683204000173, 16.086380291000125 ], [ 120.367637634000175, 16.085060120000037 ], [ 120.368682862000128, 16.084039689000065 ], [ 120.370491027000071, 16.083169937999969 ], [ 120.37136840800008, 16.08247947600006 ], [ 120.372070313000222, 16.081480027000055 ], [ 120.372566224000252, 16.080759048000175 ], [ 120.37375640800019, 16.079980851000187 ], [ 120.374580384000069, 16.079759598000066 ], [ 120.375366211000028, 16.079109192999965 ], [ 120.375938415000292, 16.077070237000044 ], [ 120.375747681, 16.076929093000103 ], [ 120.374862672000063, 16.075700761000064 ], [ 120.374153136000132, 16.074850083 ], [ 120.372810363000099, 16.073049546000163 ], [ 120.372611999000014, 16.072410584000068 ], [ 120.372177124000018, 16.07131004300004 ], [ 120.371490479000158, 16.070720673000096 ], [ 120.369827271000077, 16.069929123000179 ], [ 120.368766784000172, 16.069120408000117 ], [ 120.368209838000098, 16.068059921000042 ], [ 120.367576598000028, 16.06693077000017 ], [ 120.366172790000064, 16.065870285000074 ], [ 120.364738465000187, 16.065200806 ], [ 120.363922119000108, 16.064910887999986 ], [ 120.362869262000117, 16.06403923 ], [ 120.361801147000165, 16.066450120000184 ], [ 120.361640930000135, 16.067380906000096 ], [ 120.361671449000028, 16.06761932500001 ], [ 120.360710144000222, 16.070020675000137 ], [ 120.359878540000295, 16.070299148000174 ], [ 120.358238220000089, 16.069580079000048 ], [ 120.356719972000064, 16.070510865000188 ], [ 120.356567382000094, 16.070859909000092 ], [ 120.355827332000104, 16.07010078400009 ], [ 120.354949951000094, 16.068880081000088 ], [ 120.354057312, 16.06761932500001 ], [ 120.352386474000014, 16.066799164000088 ], [ 120.351799011000026, 16.066179275000081 ], [ 120.35114288300008, 16.064329148000184 ], [ 120.3511734020002, 16.062900544000115 ], [ 120.350860595000313, 16.061321259000124 ], [ 120.349960327000076, 16.062189103000151 ], [ 120.348823547000165, 16.06234932000018 ], [ 120.346870423000041, 16.061769486000173 ], [ 120.346130371000072, 16.06137085 ], [ 120.356487297000285, 16.087818005000088 ], [ 120.357685413000127, 16.090877401000057 ], [ 120.357772868000211, 16.091100718000177 ], [ 120.360008241000287, 16.092430115000127 ], [ 120.362792969000111, 16.09480094900016 ] ] ] ] } },
{ "type": "Feature", "properties": { "GID_3": "PHL.61.18.9_1", "GID_0": "PHL", "COUNTRY": "Philippines", "GID_1": "PHL.61_1", "NAME_1": "Pangasinan", "NL_NAME_1": "NA", "GID_2": "PHL.61.18_1", "NAME_2": "Dagupan City", "NL_NAME_2": "NA", "NAME_3": "Bonuan Gueset", "VARNAME_3": "NA", "NL_NAME_3": "NA", "TYPE_3": "Barangay", "ENGTYPE_3": "Village", "CC_3": "NA", "HASC_3": "NA" }, "geometry": { "type": "MultiPolygon", "coordinates": [ [ [ [ 120.327659607000214, 16.065700532000164 ], [ 120.327651977000073, 16.067449569000189 ], [ 120.328331, 16.067221001000121 ], [ 120.328612999000029, 16.066939999000112 ], [ 120.328056, 16.065280998999981 ], [ 120.327735901000096, 16.062782288000108 ], [ 120.327749374000064, 16.06314992200015 ], [ 120.327788988000179, 16.064239680000071 ], [ 120.327537537000012, 16.064380646000188 ], [ 120.327659607000214, 16.065700532000164 ] ] ], [ [ [ 120.357685413000127, 16.090877401000057 ], [ 120.356487297000285, 16.087818005000088 ], [ 120.346130371000072, 16.06137085 ], [ 120.343727113000227, 16.060409547000177 ], [ 120.343467713000223, 16.060489655000026 ], [ 120.34107971100002, 16.060039520000032 ], [ 120.340679884000224, 16.060356547000026 ], [ 120.340448, 16.06054 ], [ 120.340052832000197, 16.060851531000139 ], [ 120.33939, 16.061095000000137 ], [ 120.339189993000105, 16.061168588000157 ], [ 120.338966370000207, 16.061250686000051 ], [ 120.337641423000036, 16.060685928 ], [ 120.33744, 16.0606 ], [ 120.336818000000108, 16.060319 ], [ 120.33482400000014, 16.059420000000102 ], [ 120.332863, 16.058821 ], [ 120.331938, 16.058815 ], [ 120.330998829000123, 16.058809193000059 ], [ 120.330053652000288, 16.058892557000036 ], [ 120.328483581000114, 16.059030532000179 ], [ 120.32888800000012, 16.059441 ], [ 120.329170000000204, 16.059999 ], [ 120.32972, 16.061390000000188 ], [ 120.33000200000015, 16.061951 ], [ 120.330421000000115, 16.06325900000013 ], [ 120.330559000000221, 16.064171000000101 ], [ 120.330833, 16.065559000000178 ], [ 120.33139, 16.066389 ], [ 120.331657, 16.06694 ], [ 120.331947000000127, 16.06778 ], [ 120.332222000000115, 16.068060000000173 ], [ 120.332497000000103, 16.06889 ], [ 120.332497000000103, 16.069441 ], [ 120.332222000000115, 16.07028 ], [ 120.331741, 16.071390000000179 ], [ 120.331657, 16.072500000000161 ], [ 120.332024, 16.07361 ], [ 120.33223, 16.07416 ], [ 120.333893000000216, 16.076111 ], [ 120.336937000000148, 16.078609 ], [ 120.338058, 16.07945100000012 ], [ 120.340843, 16.081390000000169 ], [ 120.341873000000191, 16.082090000000164 ], [ 120.342499, 16.082500000000152 ], [ 120.345284000000106, 16.083891000000108 ], [ 120.348343000000114, 16.085831 ], [ 120.349716, 16.08667 ], [ 120.351112, 16.087219000000175 ], [ 120.351936, 16.08778 ], [ 120.352501, 16.088051 ], [ 120.353333, 16.088610000000131 ], [ 120.354721, 16.089251 ], [ 120.356956, 16.0907 ], [ 120.357772868000211, 16.091100718000177 ], [ 120.357685413000127, 16.090877401000057 ] ] ] ] } },
{ "type": "Feature", "properties": { "GID_3": "PHL.61.18.10_1", "GID_0": "PHL", "COUNTRY": "Philippines", "GID_1": "PHL.61_1", "NAME_1": "Pangasinan", "NL_NAME_1": "NA", "GID_2": "PHL.61.18_1", "NAME_2": "Dagupan City", "NL_NAME_2": "NA", "NAME_3": "Calmay", "VARNAME_3": "NA", "NL_NAME_3": "NA", "TYPE_3": "Barangay", "ENGTYPE_3": "Village", "CC_3": "NA", "HASC_3": "NA" }, "geometry": { "type": "MultiPolygon", "coordinates": [ [ [ [ 120.322906495000211, 16.042699814000059 ], [ 120.321617127000081, 16.042659760000163 ], [ 120.319282532000102, 16.041479110000125 ], [ 120.318618774000129, 16.042079926000099 ], [ 120.316978455000026, 16.044950485000072 ], [ 120.32731628400029, 16.052520752000135 ], [ 120.32774353100001, 16.050640107000049 ], [ 120.32774353100001, 16.047979355 ], [ 120.32781982500012, 16.047220231000097 ], [ 120.322906495000211, 16.042699814000059 ] ] ] ] } },
{ "type": "Feature", "properties": { "GID_3": "PHL.61.18.11_1", "GID_0": "PHL", "COUNTRY": "Philippines", "GID_1": "PHL.61_1", "NAME_1": "Pangasinan", "NL_NAME_1": "NA", "GID_2": "PHL.61.18_1", "NAME_2": "Dagupan City", "NL_NAME_2": "NA", "NAME_3": "Carael", "VARNAME_3": "NA", "NL_NAME_3": "NA", "TYPE_3": "Barangay", "ENGTYPE_3": "Village", "CC_3": "NA", "HASC_3": "NA" }, "geometry": { "type": "MultiPolygon", "coordinates": [ [ [ [ 120.316719055000021, 16.029279708000104 ], [ 120.315452576000098, 16.030550003000144 ], [ 120.309791565000069, 16.036079407000045 ], [ 120.307479859000068, 16.039360046000127 ], [ 120.306770324000126, 16.040500641000108 ], [ 120.307357789000093, 16.040489196000124 ], [ 120.30898285, 16.041780472000028 ], [ 120.312057494000101, 16.044559479000043 ], [ 120.313743591000048, 16.046239853000145 ], [ 120.315612793000014, 16.048070909000103 ], [ 120.315788269000109, 16.047580718000177 ], [ 120.316978455000026, 16.044950485000072 ], [ 120.318618774000129, 16.042079926000099 ], [ 120.319282532000102, 16.041479110000125 ], [ 120.321617127000081, 16.042659760000163 ], [ 120.322906495000211, 16.042699814000059 ], [ 120.322608948000038, 16.039449692000119 ], [ 120.323287963000098, 16.038860322000176 ], [ 120.32391357400013, 16.036710739000057 ], [ 120.324783325000226, 16.034479142000066 ], [ 120.32437896600004, 16.033649445000094 ], [ 120.322883606000346, 16.032270431000029 ], [ 120.320999145000087, 16.031339645000116 ], [ 120.317787170000202, 16.029779434000034 ], [ 120.317100525000114, 16.029279708000104 ], [ 120.316719055000021, 16.029279708000104 ] ] ] ] } },
{ "type": "Feature", "properties": { "GID_3": "PHL.61.18.12_1", "GID_0": "PHL", "COUNTRY": "Philippines", "GID_1": "PHL.61_1", "NAME_1": "Pangasinan", "NL_NAME_1": "NA", "GID_2": "PHL.61.18_1", "NAME_2": "Dagupan City", "NL_NAME_2": "NA", "NAME_3": "Caranglaan", "VARNAME_3": "NA", "NL_NAME_3": "NA", "TYPE_3": "Barangay", "ENGTYPE_3": "Village", "CC_3": "NA", "HASC_3": "NA" }, "geometry": { "type": "MultiPolygon", "coordinates": [ [ [ [ 120.353492738000227, 16.023929595000027 ], [ 120.352783202000182, 16.023729325000147 ], [ 120.351669312000013, 16.023700713999972 ], [ 120.349548341000059, 16.02939987100018 ], [ 120.347343445000092, 16.036100388000079 ], [ 120.350730896000186, 16.038509368000121 ], [ 120.35370636000016, 16.034820558000092 ], [ 120.356056213000102, 16.031000139000071 ], [ 120.35842895400026, 16.026369094000131 ], [ 120.354232788000218, 16.024349212000175 ], [ 120.353492738000227, 16.023929595000027 ] ] ] ] } },
{ "type": "Feature", "properties": { "GID_3": "PHL.61.18.13_1", "GID_0": "PHL", "COUNTRY": "Philippines", "GID_1": "PHL.61_1", "NAME_1": "Pangasinan", "NL_NAME_1": "NA", "GID_2": "PHL.61.18_1", "NAME_2": "Dagupan City", "NL_NAME_2": "NA", "NAME_3": "Herrero", "VARNAME_3": "NA", "NL_NAME_3": "NA", "TYPE_3": "Barangay", "ENGTYPE_3": "Village", "CC_3": "NA", "HASC_3": "NA" }, "geometry": { "type": "MultiPolygon", "coordinates": [ [ [ [ 120.340187072000163, 16.04657936100017 ], [ 120.340316773000154, 16.0472698210001 ], [ 120.339767455000128, 16.047779083000137 ], [ 120.338462829000036, 16.047729493000134 ], [ 120.336021424000023, 16.046600342000033 ], [ 120.333641053000065, 16.046159744000022 ], [ 120.332580566000161, 16.046070100000065 ], [ 120.331146241000056, 16.046089173000098 ], [ 120.329696655000021, 16.045959472000106 ], [ 120.32781982500012, 16.047220231000097 ], [ 120.32774353100001, 16.047979355 ], [ 120.32774353100001, 16.050640107000049 ], [ 120.328399657000091, 16.050500870000178 ], [ 120.332626343000129, 16.050800324000079 ], [ 120.337051392000035, 16.05106925900003 ], [ 120.341262817000029, 16.051359178000155 ], [ 120.342536927000083, 16.051660537000146 ], [ 120.343948363000209, 16.052539826000157 ], [ 120.345321655000134, 16.053119660000164 ], [ 120.346519471000306, 16.053680419000102 ], [ 120.347122192000029, 16.053569794000111 ], [ 120.349876404000156, 16.05264091500004 ], [ 120.351562500000227, 16.051450730000113 ], [ 120.352622985000153, 16.049919128 ], [ 120.353599548000034, 16.048910141000135 ], [ 120.350357056000121, 16.048250199000051 ], [ 120.34726715100021, 16.048330308000175 ], [ 120.34707641500006, 16.048179626000149 ], [ 120.345787049000137, 16.048519135000106 ], [ 120.342697144000113, 16.048070909000103 ], [ 120.342231750000224, 16.047779083000137 ], [ 120.340591431000121, 16.046789169000135 ], [ 120.340187072000163, 16.04657936100017 ] ] ] ] } },
{ "type": "Feature", "properties": { "GID_3": "PHL.61.18.14_1", "GID_0": "PHL", "COUNTRY": "Philippines", "GID_1": "PHL.61_1", "NAME_1": "Pangasinan", "NL_NAME_1": "NA", "GID_2": "PHL.61.18_1", "NAME_2": "Dagupan City", "NL_NAME_2": "NA", "NAME_3": "Lasip Chico", "VARNAME_3": "NA", "NL_NAME_3": "NA", "TYPE_3": "Barangay", "ENGTYPE_3": "Village", "CC_3": "NA", "HASC_3": "NA" }, "geometry": { "type": "MultiPolygon", "coordinates": [ [ [ [ 120.346076965000066, 16.02136039700008 ], [ 120.339637756000116, 16.019309998000153 ], [ 120.336067199000013, 16.034969330000138 ], [ 120.338287353000055, 16.035430909000013 ], [ 120.338813782000216, 16.034120560000076 ], [ 120.339706422000177, 16.03260040400005 ], [ 120.34066772500023, 16.029760361000172 ], [ 120.339668273000143, 16.027669908000121 ], [ 120.341583252000191, 16.024549484000033 ], [ 120.344276429000161, 16.022899627000072 ], [ 120.345993042000032, 16.021629334000181 ], [ 120.346076965000066, 16.02136039700008 ] ] ] ] } },
{ "type": "Feature", "properties": { "GID_3": "PHL.61.18.15_1", "GID_0": "PHL", "COUNTRY": "Philippines", "GID_1": "PHL.61_1", "NAME_1": "Pangasinan", "NL_NAME_1": "NA", "GID_2": "PHL.61.18_1", "NAME_2": "Dagupan City", "NL_NAME_2": "NA", "NAME_3": "Lasip Grande", "VARNAME_3": "NA", "NL_NAME_3": "NA", "TYPE_3": "Barangay", "ENGTYPE_3": "Village", "CC_3": "NA", "HASC_3": "NA" }, "geometry": { "type": "MultiPolygon", "coordinates": [ [ [ [ 120.34391021700003, 16.032590866000135 ], [ 120.344757081000012, 16.032279969000115 ], [ 120.346588135000161, 16.030569076 ], [ 120.34795379600007, 16.028499604000046 ], [ 120.348548889000199, 16.027019500000108 ], [ 120.348213196000074, 16.02520942700005 ], [ 120.347557067000025, 16.025220871000101 ], [ 120.346107482000093, 16.025449754000078 ], [ 120.343971252000074, 16.028079987000012 ], [ 120.342941284000062, 16.029479980000133 ], [ 120.342193604000045, 16.029850007000107 ], [ 120.340736390000075, 16.02996063300003 ], [ 120.34391021700003, 16.032590866000135 ] ] ] ] } },
{ "type": "Feature", "properties": { "GID_3": "PHL.61.18.16_1", "GID_0": "PHL", "COUNTRY": "Philippines", "GID_1": "PHL.61_1", "NAME_1": "Pangasinan", "NL_NAME_1": "NA", "GID_2": "PHL.61.18_1", "NAME_2": "Dagupan City", "NL_NAME_2": "NA", "NAME_3": "Lomboy", "VARNAME_3": "NA", "NL_NAME_3": "NA", "TYPE_3": "Barangay", "ENGTYPE_3": "Village", "CC_3": "NA", "HASC_3": "NA" }, "geometry": { "type": "MultiPolygon", "coordinates": [ [ [ [ 120.32731628400029, 16.052520752000135 ], [ 120.316978455000026, 16.044950485000072 ], [ 120.315788269000109, 16.047580718000177 ], [ 120.315612793000014, 16.048070909000103 ], [ 120.325843810000151, 16.055889130000139 ], [ 120.327003479000041, 16.056749342999979 ], [ 120.32731628400029, 16.052520752000135 ] ] ] ] } },
{ "type": "Feature", "properties": { "GID_3": "PHL.61.18.17_1", "GID_0": "PHL", "COUNTRY": "Philippines", "GID_1": "PHL.61_1", "NAME_1": "Pangasinan", "NL_NAME_1": "NA", "GID_2": "PHL.61.18_1", "NAME_2": "Dagupan City", "NL_NAME_2": "NA", "NAME_3": "Lucao", "VARNAME_3": "NA", "NL_NAME_3": "NA", "TYPE_3": "Barangay", "ENGTYPE_3": "Village", "CC_3": "NA", "HASC_3": "NA" }, "geometry": { "type": "MultiPolygon", "coordinates": [ [ [ [ 120.325157165000064, 16.014350891000049 ], [ 120.325103760000047, 16.020160675999989 ], [ 120.325027466000051, 16.020870209000179 ], [ 120.316719055000021, 16.029279708000104 ], [ 120.317100525000114, 16.029279708000104 ], [ 120.317787170000202, 16.029779434000034 ], [ 120.320999145000087, 16.031339645000116 ], [ 120.322883606000346, 16.032270431000029 ], [ 120.32437896600004, 16.033649445000094 ], [ 120.324783325000226, 16.034479142000066 ], [ 120.326759338000215, 16.034799577 ], [ 120.335113525000224, 16.017700196000192 ], [ 120.325157165000064, 16.014350891000049 ] ] ] ] } },
{ "type": "Feature", "properties": { "GID_3": "PHL.61.18.18_1", "GID_0": "PHL", "COUNTRY": "Philippines", "GID_1": "PHL.61_1", "NAME_1": "Pangasinan", "NL_NAME_1": "NA", "GID_2": "PHL.61.18_1", "NAME_2": "Dagupan City", "NL_NAME_2": "NA", "NAME_3": "Malued", "VARNAME_3": "NA", "NL_NAME_3": "NA", "TYPE_3": "Barangay", "ENGTYPE_3": "Village", "CC_3": "NA", "HASC_3": "NA" }, "geometry": { "type": "MultiPolygon", "coordinates": [ [ [ [ 120.339637756000116, 16.019309998000153 ], [ 120.338417054000047, 16.018150329000036 ], [ 120.335113525000224, 16.017700196000192 ], [ 120.326759338000215, 16.034799577 ], [ 120.333770751000088, 16.039079667000124 ], [ 120.333908080000015, 16.03885078400009 ], [ 120.335060119000218, 16.036840440000049 ], [ 120.336067199000013, 16.034969330000138 ], [ 120.339637756000116, 16.019309998000153 ] ] ] ] } },
{ "type": "Feature", "properties": { "GID_3": "PHL.61.18.19_1", "GID_0": "PHL", "COUNTRY": "Philippines", "GID_1": "PHL.61_1", "NAME_1": "Pangasinan", "NL_NAME_1": "NA", "GID_2": "PHL.61.18_1", "NAME_2": "Dagupan City", "NL_NAME_2": "NA", "NAME_3": "Mamalingling", "VARNAME_3": "NA", "NL_NAME_3": "NA", "TYPE_3": "Barangay", "ENGTYPE_3": "Village", "CC_3": "NA", "HASC_3": "NA" }, "geometry": { "type": "MultiPolygon", "coordinates": [ [ [ [ 120.369583130000024, 16.058679581000035 ], [ 120.365829468000129, 16.057390213000076 ], [ 120.365066528000057, 16.05657005400019 ], [ 120.362396240000066, 16.0546207430001 ], [ 120.36003112700007, 16.053060532000075 ], [ 120.358673096000075, 16.051820755000051 ], [ 120.358421326000212, 16.051929474000076 ], [ 120.357406616000048, 16.054330827000115 ], [ 120.356407165000064, 16.055089950000081 ], [ 120.352943420000088, 16.05861091700001 ], [ 120.3523483270003, 16.059089660000097 ], [ 120.350967407000098, 16.061220170000183 ], [ 120.350860595000313, 16.061321259000124 ], [ 120.3511734020002, 16.062900544000115 ], [ 120.35114288300008, 16.064329148000184 ], [ 120.351799011000026, 16.066179275000081 ], [ 120.352386474000014, 16.066799164000088 ], [ 120.354057312, 16.06761932500001 ], [ 120.354949951000094, 16.068880081000088 ], [ 120.355827332000104, 16.07010078400009 ], [ 120.356567382000094, 16.070859909000092 ], [ 120.356719972000064, 16.070510865000188 ], [ 120.358238220000089, 16.069580079000048 ], [ 120.359878540000295, 16.070299148000174 ], [ 120.360710144000222, 16.070020675000137 ], [ 120.361671449000028, 16.06761932500001 ], [ 120.361640930000135, 16.067380906000096 ], [ 120.361801147000165, 16.066450120000184 ], [ 120.362869262000117, 16.06403923 ], [ 120.363380432000326, 16.063159943000187 ], [ 120.364036560000045, 16.062330247000091 ], [ 120.365348816000164, 16.0625 ], [ 120.365806580000026, 16.062950134000118 ], [ 120.366447448000031, 16.063169479000067 ], [ 120.366867065000065, 16.062780380000106 ], [ 120.366943359000174, 16.062259674000018 ], [ 120.366981507000105, 16.061540605000118 ], [ 120.367652894000116, 16.060079574000099 ], [ 120.368446351000216, 16.059389114 ], [ 120.369583130000024, 16.058679581000035 ] ] ] ] } },
{ "type": "Feature", "properties": { "GID_3": "PHL.61.18.20_1", "GID_0": "PHL", "COUNTRY": "Philippines", "GID_1": "PHL.61_1", "NAME_1": "Pangasinan", "NL_NAME_1": "NA", "GID_2": "PHL.61.18_1", "NAME_2": "Dagupan City", "NL_NAME_2": "NA", "NAME_3": "Mangin", "VARNAME_3": "NA", "NL_NAME_3": "NA", "TYPE_3": "Barangay", "ENGTYPE_3": "Village", "CC_3": "NA", "HASC_3": "NA" }, "geometry": { "type": "MultiPolygon", "coordinates": [ [ [ [ 120.358642579000048, 16.042839051000158 ], [ 120.359046936000027, 16.042860032000021 ], [ 120.360092162000228, 16.043870927000057 ], [ 120.360733032000098, 16.045410157000049 ], [ 120.362129210000035, 16.046819687000152 ], [ 120.363441467000143, 16.047540664000053 ], [ 120.367118836000031, 16.047740936000082 ], [ 120.369323730000019, 16.046369554000137 ], [ 120.370086670000092, 16.045320512000046 ], [ 120.37100982600009, 16.043899536000026 ], [ 120.372886657000208, 16.040349960000185 ], [ 120.372108460000049, 16.037540435000153 ], [ 120.368370055000128, 16.037620544000106 ], [ 120.365142822000166, 16.038299561000088 ], [ 120.362007142000039, 16.037170410000158 ], [ 120.361183166000046, 16.035120012000164 ], [ 120.361213685000052, 16.03273010200013 ], [ 120.360977174000254, 16.030559541 ], [ 120.360046387000239, 16.030509948000088 ], [ 120.359100341000158, 16.034669876 ], [ 120.359016419000113, 16.036520005000057 ], [ 120.358642579000048, 16.042839051000158 ] ] ] ] } },
{ "type": "Feature", "properties": { "GID_3": "PHL.61.18.21_1", "GID_0": "PHL", "COUNTRY": "Philippines", "GID_1": "PHL.61_1", "NAME_1": "Pangasinan", "NL_NAME_1": "NA", "GID_2": "PHL.61.18_1", "NAME_2": "Dagupan City", "NL_NAME_2": "NA", "NAME_3": "Mayombo", "VARNAME_3": "NA", "NL_NAME_3": "NA", "TYPE_3": "Barangay", "ENGTYPE_3": "Village", "CC_3": "NA", "HASC_3": "NA" }, "geometry": { "type": "MultiPolygon", "coordinates": [ [ [ [ 120.347343445000092, 16.036100388000079 ], [ 120.346282960000053, 16.036590576000151 ], [ 120.339736938000215, 16.037939071999972 ], [ 120.340652466000051, 16.039960861000054 ], [ 120.341056823000031, 16.040889740000068 ], [ 120.341392516000042, 16.042449951000094 ], [ 120.340850831000239, 16.043130875000145 ], [ 120.340187072000163, 16.04657936100017 ], [ 120.340591431000121, 16.046789169000135 ], [ 120.342231750000224, 16.047779083000137 ], [ 120.342697144000113, 16.048070909000103 ], [ 120.345787049000137, 16.048519135000106 ], [ 120.34707641500006, 16.048179626000149 ], [ 120.348258973000043, 16.045810700000061 ], [ 120.349937439000314, 16.042789459000119 ], [ 120.350730896000186, 16.040409087000171 ], [ 120.351043701000208, 16.038839341000141 ], [ 120.350730896000186, 16.038509368000121 ], [ 120.347343445000092, 16.036100388000079 ] ] ] ] } },
{ "type": "Feature", "properties": { "GID_3": "PHL.61.18.22_1", "GID_0": "PHL", "COUNTRY": "Philippines", "GID_1": "PHL.61_1", "NAME_1": "Pangasinan", "NL_NAME_1": "NA", "GID_2": "PHL.61.18_1", "NAME_2": "Dagupan City", "NL_NAME_2": "NA", "NAME_3": "Pantal", "VARNAME_3": "NA", "NL_NAME_3": "NA", "TYPE_3": "Barangay", "ENGTYPE_3": "Village", "CC_3": "NA", "HASC_3": "NA" }, "geometry": { "type": "MultiPolygon", "coordinates": [ [ [ [ 120.328483581000114, 16.059030532000179 ], [ 120.330053652000288, 16.058892557000036 ], [ 120.330998829000123, 16.058809193000059 ], [ 120.331938, 16.058815 ], [ 120.332863, 16.058821 ], [ 120.33482400000014, 16.059420000000102 ], [ 120.336818000000108, 16.060319 ], [ 120.33744, 16.0606 ], [ 120.337641423000036, 16.060685928 ], [ 120.338966370000207, 16.061250686000051 ], [ 120.339189993000105, 16.061168588000157 ], [ 120.33939, 16.061095000000137 ], [ 120.340052832000197, 16.060851531000139 ], [ 120.340448, 16.06054 ], [ 120.340679884000224, 16.060356547000026 ], [ 120.34107971100002, 16.060039520000032 ], [ 120.341567994000116, 16.058790206000026 ], [ 120.342247009000289, 16.056739807000099 ], [ 120.342056275000118, 16.054689407000069 ], [ 120.343948363000209, 16.052539826000157 ], [ 120.342536927000083, 16.051660537000146 ], [ 120.341262817000029, 16.051359178000155 ], [ 120.337051392000035, 16.05106925900003 ], [ 120.332626343000129, 16.050800324000079 ], [ 120.328399657000091, 16.050500870000178 ], [ 120.32774353100001, 16.050640107000049 ], [ 120.32731628400029, 16.052520752000135 ], [ 120.327003479000041, 16.056749342999979 ], [ 120.32731628400029, 16.058179855000049 ], [ 120.327369689000193, 16.058330537000074 ], [ 120.32776641800001, 16.058330537000074 ], [ 120.328483581000114, 16.059030532000179 ] ] ] ] } },
{ "type": "Feature", "properties": { "GID_3": "PHL.61.18.23_1", "GID_0": "PHL", "COUNTRY": "Philippines", "GID_1": "PHL.61_1", "NAME_1": "Pangasinan", "NL_NAME_1": "NA", "GID_2": "PHL.61.18_1", "NAME_2": "Dagupan City", "NL_NAME_2": "NA", "NAME_3": "Poblacion Oeste", "VARNAME_3": "NA", "NL_NAME_3": "NA", "TYPE_3": "Barangay", "ENGTYPE_3": "Village", "CC_3": "NA", "HASC_3": "NA" }, "geometry": { "type": "MultiPolygon", "coordinates": [ [ [ [ 120.331146241000056, 16.046089173000098 ], [ 120.331916809000177, 16.044879914000148 ], [ 120.332862854000041, 16.043560028 ], [ 120.333412170000202, 16.042379380000057 ], [ 120.333328248000157, 16.041709901000161 ], [ 120.332427978000283, 16.041469574000075 ], [ 120.322906495000211, 16.042699814000059 ], [ 120.32781982500012, 16.047220231000097 ], [ 120.329696655000021, 16.045959472000106 ], [ 120.331146241000056, 16.046089173000098 ] ] ] ] } },
{ "type": "Feature", "properties": { "GID_3": "PHL.61.18.24_1", "GID_0": "PHL", "COUNTRY": "Philippines", "GID_1": "PHL.61_1", "NAME_1": "Pangasinan", "NL_NAME_1": "NA", "GID_2": "PHL.61.18_1", "NAME_2": "Dagupan City", "NL_NAME_2": "NA", "NAME_3": "Pogo Chico", "VARNAME_3": "NA", "NL_NAME_3": "NA", "TYPE_3": "Barangay", "ENGTYPE_3": "Village", "CC_3": "NA", "HASC_3": "NA" }, "geometry": { "type": "MultiPolygon", "coordinates": [ [ [ [ 120.339736938000215, 16.037939071999972 ], [ 120.339660645000208, 16.036550522000027 ], [ 120.339706422000177, 16.036130904000117 ], [ 120.339843751000217, 16.035800934000179 ], [ 120.339530944000217, 16.035829545000126 ], [ 120.338287353000055, 16.035430909000013 ], [ 120.336067199000013, 16.034969330000138 ], [ 120.335060119000218, 16.036840440000049 ], [ 120.333908080000015, 16.03885078400009 ], [ 120.333770751000088, 16.039079667000124 ], [ 120.335586549000027, 16.040199280000138 ], [ 120.340850831000239, 16.043130875000145 ], [ 120.341392516000042, 16.042449951000094 ], [ 120.341056823000031, 16.040889740000068 ], [ 120.340652466000051, 16.039960861000054 ], [ 120.339736938000215, 16.037939071999972 ] ] ] ] } },
{ "type": "Feature", "properties": { "GID_3": "PHL.61.18.25_1", "GID_0": "PHL", "COUNTRY": "Philippines", "GID_1": "PHL.61_1", "NAME_1": "Pangasinan", "NL_NAME_1": "NA", "GID_2": "PHL.61.18_1", "NAME_2": "Dagupan City", "NL_NAME_2": "NA", "NAME_3": "Pogo Grande", "VARNAME_3": "NA", "NL_NAME_3": "NA", "TYPE_3": "Barangay", "ENGTYPE_3": "Village", "CC_3": "NA", "HASC_3": "NA" }, "geometry": { "type": "MultiPolygon", "coordinates": [ [ [ [ 120.339843751000217, 16.035800934000179 ], [ 120.341827392000141, 16.034479142000066 ], [ 120.343170167000153, 16.033769608000171 ], [ 120.34391021700003, 16.032590866000135 ], [ 120.340736390000075, 16.02996063300003 ], [ 120.34066772500023, 16.029760361000172 ], [ 120.339706422000177, 16.03260040400005 ], [ 120.338813782000216, 16.034120560000076 ], [ 120.338287353000055, 16.035430909000013 ], [ 120.339530944000217, 16.035829545000126 ], [ 120.339843751000217, 16.035800934000179 ] ] ] ] } },
{ "type": "Feature", "properties": { "GID_3": "PHL.61.18.26_1", "GID_0": "PHL", "COUNTRY": "Philippines", "GID_1": "PHL.61_1", "NAME_1": "Pangasinan", "NL_NAME_1": "NA", "GID_2": "PHL.61.18_1", "NAME_2": "Dagupan City", "NL_NAME_2": "NA", "NAME_3": "Pugaro Suit", "VARNAME_3": "NA", "NL_NAME_3": "NA", "TYPE_3": "Barangay", "ENGTYPE_3": "Village", "CC_3": "NA", "HASC_3": "NA" }, "geometry": { "type": "MultiPolygon", "coordinates": [ [ [ [ 120.300880433000088, 16.051959991000047 ], [ 120.298530578000282, 16.056070328000033 ], [ 120.298606873000153, 16.056110383000089 ], [ 120.300277710000046, 16.056940079000128 ], [ 120.301109313000097, 16.057220460000167 ], [ 120.301666260000047, 16.057500840000102 ], [ 120.303611756000237, 16.058059692000143 ], [ 120.304443360000164, 16.05861091700001 ], [ 120.309997558000191, 16.060560226000121 ], [ 120.310546875000227, 16.060829164000154 ], [ 120.311111450000112, 16.061109542000054 ], [ 120.312767029000042, 16.061670303000028 ], [ 120.313331604000155, 16.061950684000067 ], [ 120.314453126000217, 16.0625 ], [ 120.315002442000036, 16.062780380000106 ], [ 120.316108704000044, 16.063329696000096 ], [ 120.318817138000327, 16.064580917000171 ], [ 120.319381714000315, 16.064929961000075 ], [ 120.32166290400005, 16.066110611000056 ], [ 120.322357177000072, 16.066389084000093 ], [ 120.323333740000066, 16.066940308000085 ], [ 120.324447632000101, 16.067499161 ], [ 120.324996948000035, 16.067779542000039 ], [ 120.326393128000291, 16.067779542000039 ], [ 120.327499390000185, 16.067499161 ], [ 120.327651977000073, 16.067449569000189 ], [ 120.327659607000214, 16.065700532000164 ], [ 120.327537537000012, 16.064380646000188 ], [ 120.326568604000045, 16.063499452000087 ], [ 120.3249893200001, 16.061609268000041 ], [ 120.322570801000097, 16.059949875000143 ], [ 120.320297240000059, 16.058719635000159 ], [ 120.317459107000104, 16.057939529000066 ], [ 120.31504821700014, 16.056760788000133 ], [ 120.313682555000128, 16.055530548000149 ], [ 120.312530518000131, 16.054250718000105 ], [ 120.310546875000227, 16.05204010000017 ], [ 120.309143067000036, 16.050420761000055 ], [ 120.307243348000156, 16.048879624000165 ], [ 120.30609130900018, 16.048200607000012 ], [ 120.303993226000216, 16.047090530000105 ], [ 120.303672791000054, 16.047149658000023 ], [ 120.300880433000088, 16.051959991000047 ] ] ] ] } },
{ "type": "Feature", "properties": { "GID_3": "PHL.61.18.27_1", "GID_0": "PHL", "COUNTRY": "Philippines", "GID_1": "PHL.61_1", "NAME_1": "Pangasinan", "NL_NAME_1": "NA", "GID_2": "PHL.61.18_1", "NAME_2": "Dagupan City", "NL_NAME_2": "NA", "NAME_3": "Salapingao", "VARNAME_3": "NA", "NL_NAME_3": "NA", "TYPE_3": "Barangay", "ENGTYPE_3": "Village", "CC_3": "NA", "HASC_3": "NA" }, "geometry": { "type": "MultiPolygon", "coordinates": [ [ [ [ 120.306770324000126, 16.040500641000108 ], [ 120.305023194000114, 16.044179916000132 ], [ 120.303672791000054, 16.047149658000023 ], [ 120.303993226000216, 16.047090530000105 ], [ 120.30609130900018, 16.048200607000012 ], [ 120.307243348000156, 16.048879624000165 ], [ 120.309143067000036, 16.050420761000055 ], [ 120.310546875000227, 16.05204010000017 ], [ 120.312530518000131, 16.054250718000105 ], [ 120.313682555000128, 16.055530548000149 ], [ 120.31504821700014, 16.056760788000133 ], [ 120.317459107000104, 16.057939529000066 ], [ 120.320297240000059, 16.058719635000159 ], [ 120.322570801000097, 16.059949875000143 ], [ 120.3249893200001, 16.061609268000041 ], [ 120.326568604000045, 16.063499452000087 ], [ 120.327537537000012, 16.064380646000188 ], [ 120.327788988000179, 16.064239680000071 ], [ 120.327749374000064, 16.06314992200015 ], [ 120.327735901000096, 16.062782288000108 ], [ 120.327728271000183, 16.062679291 ], [ 120.327499390000185, 16.062219619000189 ], [ 120.326667786000144, 16.060829164000154 ], [ 120.326393128000291, 16.059999465000146 ], [ 120.326393128000291, 16.058889388000068 ], [ 120.32694244400011, 16.058330537000074 ], [ 120.327369689000193, 16.058330537000074 ], [ 120.32731628400029, 16.058179855000049 ], [ 120.327003479000041, 16.056749342999979 ], [ 120.325843810000151, 16.055889130000139 ], [ 120.315612793000014, 16.048070909000103 ], [ 120.313743591000048, 16.046239853000145 ], [ 120.312057494000101, 16.044559479000043 ], [ 120.30898285, 16.041780472000028 ], [ 120.307357789000093, 16.040489196000124 ], [ 120.306770324000126, 16.040500641000108 ] ] ] ] } },
{ "type": "Feature", "properties": { "GID_3": "PHL.61.18.28_1", "GID_0": "PHL", "COUNTRY": "Philippines", "GID_1": "PHL.61_1", "NAME_1": "Pangasinan", "NL_NAME_1": "NA", "GID_2": "PHL.61.18_1", "NAME_2": "Dagupan City", "NL_NAME_2": "NA", "NAME_3": "Salisay", "VARNAME_3": "NA", "NL_NAME_3": "NA", "TYPE_3": "Barangay", "ENGTYPE_3": "Village", "CC_3": "NA", "HASC_3": "NA" }, "geometry": { "type": "MultiPolygon", "coordinates": [ [ [ [ 120.384742737000124, 16.034809112000175 ], [ 120.361412049000137, 16.027349473000186 ], [ 120.360046387000239, 16.030509948000088 ], [ 120.360977174000254, 16.030559541 ], [ 120.361213685000052, 16.03273010200013 ], [ 120.361183166000046, 16.035120012000164 ], [ 120.362007142000039, 16.037170410000158 ], [ 120.365142822000166, 16.038299561000088 ], [ 120.368370055000128, 16.037620544000106 ], [ 120.372108460000049, 16.037540435000153 ], [ 120.372886657000208, 16.040349960000185 ], [ 120.37100982600009, 16.043899536000026 ], [ 120.370086670000092, 16.045320512000046 ], [ 120.369323730000019, 16.046369554000137 ], [ 120.371810914000093, 16.051410675000056 ], [ 120.373466492000148, 16.051120759000071 ], [ 120.374603272000058, 16.050449372 ], [ 120.376167298000155, 16.049060822000058 ], [ 120.37584686300022, 16.04847908000005 ], [ 120.375473023000154, 16.04726028500005 ], [ 120.37568664600019, 16.04657936100017 ], [ 120.376663209000071, 16.045539855000129 ], [ 120.377822876000209, 16.045259477000059 ], [ 120.380538940000179, 16.044700623000153 ], [ 120.381942749000245, 16.044309617000124 ], [ 120.383163453000179, 16.04377937300012 ], [ 120.384277343, 16.043100358000174 ], [ 120.385246276000089, 16.042110444000173 ], [ 120.385986328000058, 16.041040422000094 ], [ 120.385902404000035, 16.039279937000174 ], [ 120.385177613000224, 16.037879944000053 ], [ 120.384887694000099, 16.036680222000086 ], [ 120.384872436000137, 16.036489486000107 ], [ 120.384742737000124, 16.034809112000175 ] ] ] ] } },
{ "type": "Feature", "properties": { "GID_3": "PHL.61.18.29_1", "GID_0": "PHL", "COUNTRY": "Philippines", "GID_1": "PHL.61_1", "NAME_1": "Pangasinan", "NL_NAME_1": "NA", "GID_2": "PHL.61.18_1", "NAME_2": "Dagupan City", "NL_NAME_2": "NA", "NAME_3": "Tambac", "VARNAME_3": "NA", "NL_NAME_3": "NA", "TYPE_3": "Barangay", "ENGTYPE_3": "Village", "CC_3": "NA", "HASC_3": "NA" }, "geometry": { "type": "MultiPolygon", "coordinates": [ [ [ [ 120.358421326000212, 16.051929474000076 ], [ 120.358169555000018, 16.050569534000033 ], [ 120.358123780000028, 16.048740387000123 ], [ 120.358100891000049, 16.04656028800008 ], [ 120.356338501000096, 16.046630859000174 ], [ 120.353988647000165, 16.048629760000097 ], [ 120.353599548000034, 16.048910141000135 ], [ 120.352622985000153, 16.049919128 ], [ 120.351562500000227, 16.051450730000113 ], [ 120.349876404000156, 16.05264091500004 ], [ 120.347122192000029, 16.053569794000111 ], [ 120.346519471000306, 16.053680419000102 ], [ 120.345321655000134, 16.053119660000164 ], [ 120.343948363000209, 16.052539826000157 ], [ 120.342056275000118, 16.054689407000069 ], [ 120.342247009000289, 16.056739807000099 ], [ 120.341567994000116, 16.058790206000026 ], [ 120.34107971100002, 16.060039520000032 ], [ 120.343467713000223, 16.060489655000026 ], [ 120.343727113000227, 16.060409547000177 ], [ 120.346130371000072, 16.06137085 ], [ 120.346870423000041, 16.061769486000173 ], [ 120.348823547000165, 16.06234932000018 ], [ 120.349960327000076, 16.062189103000151 ], [ 120.350860595000313, 16.061321259000124 ], [ 120.350967407000098, 16.061220170000183 ], [ 120.3523483270003, 16.059089660000097 ], [ 120.352943420000088, 16.05861091700001 ], [ 120.356407165000064, 16.055089950000081 ], [ 120.357406616000048, 16.054330827000115 ], [ 120.358421326000212, 16.051929474000076 ] ] ] ] } },
{ "type": "Feature", "properties": { "GID_3": "PHL.61.18.30_1", "GID_0": "PHL", "COUNTRY": "Philippines", "GID_1": "PHL.61_1", "NAME_1": "Pangasinan", "NL_NAME_1": "NA", "GID_2": "PHL.61.18_1", "NAME_2": "Dagupan City", "NL_NAME_2": "NA", "NAME_3": "Tapuac", "VARNAME_3": "NA", "NL_NAME_3": "NA", "TYPE_3": "Barangay", "ENGTYPE_3": "Village", "CC_3": "NA", "HASC_3": "NA" }, "geometry": { "type": "MultiPolygon", "coordinates": [ [ [ [ 120.332427978000283, 16.041469574000075 ], [ 120.333770751000088, 16.039079667000124 ], [ 120.326759338000215, 16.034799577 ], [ 120.324783325000226, 16.034479142000066 ], [ 120.32391357400013, 16.036710739000057 ], [ 120.323287963000098, 16.038860322000176 ], [ 120.322608948000038, 16.039449692000119 ], [ 120.322906495000211, 16.042699814000059 ], [ 120.332427978000283, 16.041469574000075 ] ] ] ] } },
{ "type": "Feature", "properties": { "GID_3": "PHL.61.18.31_1", "GID_0": "PHL", "COUNTRY": "Philippines", "GID_1": "PHL.61_1", "NAME_1": "Pangasinan", "NL_NAME_1": "NA", "GID_2": "PHL.61.18_1", "NAME_2": "Dagupan City", "NL_NAME_2": "NA", "NAME_3": "Tebeng", "VARNAME_3": "NA", "NL_NAME_3": "NA", "TYPE_3": "Barangay", "ENGTYPE_3": "Village", "CC_3": "NA", "HASC_3": "NA" }, "geometry": { "type": "MultiPolygon", "coordinates": [ [ [ [ 120.361412049000137, 16.027349473000186 ], [ 120.360618592000037, 16.027139663000014 ], [ 120.35842895400026, 16.026369094000131 ], [ 120.356056213000102, 16.031000139000071 ], [ 120.35370636000016, 16.034820558000092 ], [ 120.350730896000186, 16.038509368000121 ], [ 120.351043701000208, 16.038839341000141 ], [ 120.350730896000186, 16.040409087000171 ], [ 120.349937439000314, 16.042789459000119 ], [ 120.348258973000043, 16.045810700000061 ], [ 120.34707641500006, 16.048179626000149 ], [ 120.34726715100021, 16.048330308000175 ], [ 120.350357056000121, 16.048250199000051 ], [ 120.353599548000034, 16.048910141000135 ], [ 120.353988647000165, 16.048629760000097 ], [ 120.356338501000096, 16.046630859000174 ], [ 120.358100891000049, 16.04656028800008 ], [ 120.358642579000048, 16.042839051000158 ], [ 120.359016419000113, 16.036520005000057 ], [ 120.359100341000158, 16.034669876 ], [ 120.360046387000239, 16.030509948000088 ], [ 120.361412049000137, 16.027349473000186 ] ] ] ] } }
]
}
